{
  "links" : {
    "next" : "https://api.nasa.gov/neo/rest/v1/feed?start_date=2010-05-09&end_date=2010-05-09&detailed=true&api_key=t0TVs3DtDT2H8Oy2Zy8m2eVrNsAVKAexjcZXUckd",
    "prev" : "https://api.nasa.gov/neo/rest/v1/feed?start_date=2010-05-07&end_date=2010-05-07&detailed=true&api_key=t0TVs3DtDT2H8Oy2Zy8m2eVrNsAVKAexjcZXUckd",
    "self" : "https://api.nasa.gov/neo/rest/v1/feed?start_date=2010-05-08&end_date=2010-05-08&detailed=true&api_key=t0TVs3DtDT2H8Oy2Zy8m2eVrNsAVKAexjcZXUckd"
  },
  "element_count" : 8,
  "near_earth_objects" : {
    "2010-05-08" : [ {
      "links" : {
        "self" : "https://api.nasa.gov/neo/rest/v1/neo/3720000?api_key=t0TVs3DtDT2H8Oy2Zy8m2eVrNsAVKAexjcZXUckd"
      },
      "neo_reference_id" : "3720000",
      "name" : "(2015 KT120)",
      "nasa_jpl_url" : "http://ssd.jpl.nasa.gov/sbdb.cgi?sstr=3720000",
      "absolute_magnitude_h" : 25.1,
      "estimated_diameter" : {
        "kilometers" : {
          "estimated_diameter_min" : 0.0253837029,
          "estimated_diameter_max" : 0.0567596853
        },
        "meters" : {
          "estimated_diameter_min" : 25.3837029364,
          "estimated_diameter_max" : 56.7596852866
        },
        "miles" : {
          "estimated_diameter_min" : 0.0157726969,
          "estimated_diameter_max" : 0.0352688224
        },
        "feet" : {
          "estimated_diameter_min" : 83.279867942,
          "estimated_diameter_max" : 186.2194458756
        }
      },
      "is_potentially_hazardous_asteroid" : false,
      "close_approach_data" : [ {
        "close_approach_date" : "2010-05-08",
        "epoch_date_close_approach" : 1273302000000,
        "relative_velocity" : {
          "kilometers_per_second" : "15.6128428247",
          "kilometers_per_hour" : "56206.2341688707",
          "miles_per_hour" : "34924.3681145408"
        },
        "miss_distance" : {
          "astronomical" : "0.3388776285",
          "lunar" : "131.8233947754",
          "kilometers" : "50695372",
          "miles" : "31500642"
        },
        "orbiting_body" : "Earth"
      } ],
      "orbital_data" : {
        "orbit_id" : "8",
        "orbit_determination_date" : "2017-04-06 08:33:29",
        "orbit_uncertainty" : "2",
        "minimum_orbit_intersection" : ".132242",
        "jupiter_tisserand_invariant" : "6.071",
        "epoch_osculation" : "2458000.5",
        "eccentricity" : ".213240992919341",
        "semi_major_axis" : ".9917793163444358",
        "inclination" : "14.83781282138385",
        "ascending_node_longitude" : "72.48691883154835",
        "orbital_period" : "360.762175400384",
        "perihelion_distance" : ".7802913101702832",
        "perihelion_argument" : "27.62469613584903",
        "aphelion_distance" : "1.203267322518588",
        "perihelion_time" : "2458124.425615339074",
        "mean_anomaly" : "236.3361999562356",
        "mean_motion" : ".9978873189808825",
        "equinox" : "J2000"
      }
    }, {
      "links" : {
        "self" : "https://api.nasa.gov/neo/rest/v1/neo/3519453?api_key=t0TVs3DtDT2H8Oy2Zy8m2eVrNsAVKAexjcZXUckd"
      },
      "neo_reference_id" : "3519453",
      "name" : "(2010 JA)",
      "nasa_jpl_url" : "http://ssd.jpl.nasa.gov/sbdb.cgi?sstr=3519453",
      "absolute_magnitude_h" : 27.0,
      "estimated_diameter" : {
        "kilometers" : {
          "estimated_diameter_min" : 0.0105816886,
          "estimated_diameter_max" : 0.023661375
        },
        "meters" : {
          "estimated_diameter_min" : 10.5816885933,
          "estimated_diameter_max" : 23.6613750114
        },
        "miles" : {
          "estimated_diameter_min" : 0.0065751544,
          "estimated_diameter_max" : 0.0147024923
        },
        "feet" : {
          "estimated_diameter_min" : 34.7168272045,
          "estimated_diameter_max" : 77.6291855923
        }
      },
      "is_potentially_hazardous_asteroid" : false,
      "close_approach_data" : [ {
        "close_approach_date" : "2010-05-08",
        "epoch_date_close_approach" : 1273302000000,
        "relative_velocity" : {
          "kilometers_per_second" : "8.4502066629",
          "kilometers_per_hour" : "30420.7439865157",
          "miles_per_hour" : "18902.2672842881"
        },
        "miss_distance" : {
          "astronomical" : "0.0046625101",
          "lunar" : "1.8137164116",
          "kilometers" : "697501.5625",
          "miles" : "433407.375"
        },
        "orbiting_body" : "Earth"
      } ],
      "orbital_data" : {
        "orbit_id" : "12",
        "orbit_determination_date" : "2017-04-06 08:57:40",
        "orbit_uncertainty" : "6",
        "minimum_orbit_intersection" : ".00406748",
        "jupiter_tisserand_invariant" : "5.204",
        "epoch_osculation" : "2458000.5",
        "eccentricity" : ".2931548906703682",
        "semi_major_axis" : "1.215651436920391",
        "inclination" : "2.521330955804476",
        "ascending_node_longitude" : "222.36482678509",
        "orbital_period" : "489.5668790035197",
        "perihelion_distance" : ".8592772728367177",
        "perihelion_argument" : "74.97655953525529",
        "aphelion_distance" : "1.572025601004064",
        "perihelion_time" : "2457827.884427741095",
        "mean_anomaly" : "126.9318017176545",
        "mean_motion" : ".7353438629932558",
        "equinox" : "J2000"
      }
    } ]
  }
}